COSMOS 2433 (720)       
1 32275U 07052A   25104.95229999 -.00000046  00000+0  00000+0 0  9998
2 32275  65.8054 330.3102 0000945 269.0263  91.0183  2.13104178135937
COSMOS 2432 (719)       
1 32276U 07052B   25105.73170053 -.00000044  00000+0  00000+0 0  9990
2 32276  65.8204 330.4037 0009885 337.1193 206.1573  2.13103322135970
COSMOS 2434 (721)       
1 32393U 07065A   25105.61653620  .00000026  00000+0  00000+0 0  9996
2 32393  64.3151 206.3425 0002185  69.0476 332.1723  2.13101438134666
COSMOS 2436 (723)       
1 32395U 07065C   25105.89737062  .00000026  00000+0  00000+0 0  9991
2 32395  64.3236 206.4008 0016730   1.3905  29.3954  2.13100354134620
COSMOS 2456 (730)       
1 36111U 09070A   25106.39468920  .00000028  00000+0  00000+0 0  9991
2 36111  64.7666  85.5588 0006414 309.5958 124.1121  2.13103761119379
COSMOS 2457 (733)       
1 36112U 09070B   25105.91065940  .00000024  00000+0  00000+0 0  9990
2 36112  64.7513  85.4277 0002046 196.1181 357.6076  2.13101202119325
COSMOS 2460 (732)       
1 36402U 10007C   25106.38232266 -.00000041  00000+0  00000+0 0  9993
2 36402  65.6553 328.8741 0002261  46.8650 144.6569  2.13106300117729
COSMOS 2476 (744)       
1 37867U 11064A   25105.71168565  .00000026  00000+0  00000+0 0  9991
2 37867  65.0329  87.3288 0024338 242.2440 297.8575  2.13101607104652
COSMOS 2477 (745)       
1 37868U 11064B   25105.87420156  .00000028  00000+0  00000+0 0  9998
2 37868  65.0399  87.3989 0021565 243.8831 240.5463  2.13103088104654
COSMOS 2475 (743)       
1 37869U 11064C   25106.42443206  .00000032  00000+0  00000+0 0  9997
2 37869  65.0471  87.3977 0027144 256.2393 247.3192  2.13101837104668
COSMOS 2485 (747)       
1 39155U 13019A   25105.41666052  .00000026  00000+0  00000+0 0  9996
2 39155  65.1873  87.9854 0024607 238.1804 121.5668  2.13104578 93160
COSMOS 2492 (754)       
1 39620U 14012A   25104.43498259 -.00000046  00000+0  00000+0 0  9993
2 39620  65.5361 328.4725 0012606 330.2042  29.7790  2.13103336 86109
COSMOS 2500 (755)       
1 40001U 14032A   25106.01810927 -.00000041  00000+0  00000+0 0  9991
2 40001  65.4715 328.2004 0004943 189.6366 170.4052  2.13106026 84353
COSMOS 2501 (702K)      
1 40315U 14075A   25105.80545015  .00000026  00000+0  00000+0 0  9997
2 40315  63.6151 205.1713 0020612 207.8766 152.0461  2.13101468 80747
COSMOS 2514 (751)       
1 41330U 16008A   25105.78897847 -.00000042  00000+0  00000+0 0  9992
2 41330  65.2638 327.6408 0008664 204.7088 155.3007  2.13102712 71510
COSMOS 2522 (752)       
1 42939U 17055A   25103.75096680  .00000015  00000+0  00000+0 0  9991
2 42939  64.0768 206.5058 0008229 234.5077 125.4349  2.13101829 58823
COSMOS 2527 (756)       
1 43508U 18053A   25105.58786811  .00000028  00000+0  00000+0 0  9992
2 43508  65.3464  88.1945 0009303 247.3050 112.5835  2.13102301 53164
COSMOS 2529 (757)       
1 43687U 18086A   25105.21687737  .00000024  00000+0  00000+0 0  9999
2 43687  64.2926 207.0499 0009371 257.0587 102.8633  2.13102089 50165
COSMOS 2534 (758)       
1 44299U 19030A   25106.41572874  .00000026  00000+0  00000+0 0  9999
2 44299  64.3658 206.9913 0011172 280.3488  53.5929  2.13102419 45822
COSMOS 2544 (759)       
1 44850U 19088A   25105.06293982  .00000025  00000+0  00000+0 0  9994
2 44850  65.3333  88.0434 0015333 262.3060  97.5069  2.13102100 41592
COSMOS 2545 (760)       
1 45358U 20018A   25106.19816390 -.00000042  00000+0  00000+0 0  9992
2 45358  64.6016 327.3900 0007194 247.5519 112.4213  2.13102633 39566
COSMOS 2547 (705K)      
1 46805U 20075A   25106.38397902  .00000027  00000+0  00000+0 0  9999
2 46805  64.5957 206.7241 0007502 236.3622 123.5986  2.13100481 34811
COSMOS 2557 (706K)      
1 52984U 22075A   25105.14327480 -.00000048  00000+0  00000+0 0  9997
2 52984  64.5370 329.5294 0011003 285.1100  74.8215  2.13102085 21597
COSMOS 2559 (707K)      
1 54031U 22130A   25091.00919060 -.00000051  00000+0  00000+0 0  9998
2 54031  64.5157 330.1326 0005192 225.6156 134.3984  2.13101195 19268
COSMOS 2564 (761)       
1 54377U 22161A   25105.74546680  .00000026  00000+0  00000+0 0  9997
2 54377  64.7374 206.9046 0009961 216.6630 143.2983  2.13102059 18524
COSMOS 2569 (703K)      
1 57517U 23114A   25105.76035213  .00000026  00000+0  00000+0 0  9992
2 57517  65.0648  87.0605 0012846 294.9602  64.8919  2.13103969 13156
COSMOS 2584 (704K)      
1 63130U 25042A   25105.64686690  .00000026  00000+0  00000+0 0  9990
2 63130  64.8460  87.3628 0007511 237.1222 122.7916  2.13103626   934
